     2.100          NAVIGATION                              RINEX VERSION / TYPE
fic2rin                                 08/21/2013 00:23:36 PGM / RUN BY / DATE
                                                            END OF HEADER
27 13  8 20  8  0  0.0 -.261990353465D-04 -.477484718431D-11  .000000000000D+00
     .580000000000D+02 -.144312500000D+03  .449125850752D-08  .289266701316D+01
    -.740587711334D-05  .375802745111D-03  .700727105141D-05  .515366740799D+04
     .201600000000D+06  .838190317154D-07  .226362339236D+01  .819563865662D-07
     .960778242350D+00  .244250000000D+03  .956906701336D+00 -.827891627867D-08
    -.467162316328D-09  .100000000000D+01  .175400000000D+04  .000000000000D+00
     .340000000000D+01  .000000000000D+00  .186264514923D-08  .580000000000D+02
     .194406000000D+06  .400000000000D+01
28 13  8 20  8  0  0.0  .285671092570D-03  .318323145621D-11  .000000000000D+00
     .350000000000D+02  .495937500000D+02  .429446459597D-08 -.174922830887D+01
     .278651714325D-05  .186830628663D-01  .129453837872D-05  .515364659691D+04
     .201600000000D+06  .368803739548D-06  .127729245501D+01  .270083546638D-06
     .983789740392D+00  .366468750000D+03 -.176448799273D+01 -.814391065514D-08
     .828605943335D-10  .100000000000D+01  .175400000000D+04  .000000000000D+00
     .240000000000D+01  .000000000000D+00 -.107102096081D-07  .350000000000D+02
     .194406000000D+06  .400000000000D+01
29 13  8 20  8  0  0.0  .463693402708D-03  .318323145621D-11  .000000000000D+00
     .720000000000D+02 -.123187500000D+03  .436625330055D-08  .273054149573D+00
    -.645406544209D-05  .155298400205D-02  .772438943386D-05  .515359922218D+04
     .201600000000D+06  .186264514923D-08  .231621845868D+01 -.149011611938D-07
     .966887811033D+00  .235593750000D+03 -.982410780644D+00 -.814891086342D-08
    -.489663253583D-09  .100000000000D+01  .175400000000D+04  .000000000000D+00
     .240000000000D+01  .000000000000D+00 -.931322574615D-08  .720000000000D+02
     .194406000000D+06  .400000000000D+01
31 13  8 20  8  0  0.0  .323896296322D-03  .909494701773D-12  .000000000000D+00
     .400000000000D+02  .109062500000D+03  .386337521080D-08  .960726946591D+00
     .552646815777D-05  .787918199785D-02  .124089419842D-04  .515365831375D+04
     .201600000000D+06  .156462192535D-06  .198059373168D+00 -.102445483208D-06
     .980414625999D+00  .147656250000D+03 -.733890456295D+00 -.773960810003D-08
     .921466954226D-10  .100000000000D+01  .175400000000D+04  .000000000000D+00
     .240000000000D+01  .000000000000D+00 -.130385160446D-07  .400000000000D+02
     .194406000000D+06  .400000000000D+01
32 13  8 20  8  0  0.0 -.553904566914D-03  .204636307899D-11  .000000000000D+00
     .410000000000D+02  .278750000000D+02  .543094050619D-08  .142894330052D+01
     .134669244289D-05  .115880573867D-01  .408291816711D-05  .515360663605D+04
     .201600000000D+06  .987201929092D-07 -.183618225332D+01  .160187482834D-06
     .948455559644D+00  .295437500000D+03 -.315830223848D+00 -.855357057626D-08
     .180721813503D-09  .100000000000D+01  .175400000000D+04  .000000000000D+00
     .240000000000D+01  .000000000000D+00 -.279396772385D-08  .410000000000D+02
     .194406000000D+06  .400000000000D+01
 5 13  8 20  7 59 44.0 -.399578362703D-03 -.113686837722D-12  .000000000000D+00
     .800000000000D+01  .335312500000D+02  .536558064083D-08 -.169106958516D+01
     .145472586155D-05  .317376560997D-02  .436417758465D-05  .515367563820D+04
     .201584000000D+06  .465661287308D-07 -.192510003363D+01 -.242143869400D-07
     .947978544483D+00  .286593750000D+03  .253631840579D+00 -.857428572485D-08
     .423589072757D-09  .100000000000D+01  .175400000000D+04  .000000000000D+00
     .240000000000D+01  .000000000000D+00 -.977888703346D-08  .800000000000D+01
     .198126000000D+06  .400000000000D+01
 2 13  8 20  7 59 44.0  .447397585958D-03  .181898940355D-11  .000000000000D+00
     .100000000000D+02 -.116875000000D+02  .453518890882D-08  .231575815443D+01
    -.527128577232D-06  .125379570527D-01  .128149986267D-04  .515372160339D+04
     .201584000000D+06 -.260770320892D-06 -.299074850793D+01 -.197440385818D-06
     .939366888493D+00  .118843750000D+03 -.256743670386D+01 -.795175979414D-08
     .463590738987D-09  .100000000000D+01  .175400000000D+04  .000000000000D+00
     .240000000000D+01  .000000000000D+00 -.172294676304D-07  .100000000000D+02
     .198456000000D+06  .400000000000D+01
 2 13  8 20  9 59 44.0  .447410624474D-03  .181898940355D-11  .000000000000D+00
     .130000000000D+02 -.182812500000D+02  .447268630534D-08 -.291724294555D+01
    -.908970832825D-06  .125394562492D-01  .132732093334D-04  .515371871948D+04
     .208784000000D+06 -.353902578354D-07 -.299080481564D+01 -.178813934326D-06
     .939370964183D+00  .109781250000D+03 -.256746875493D+01 -.778210987040D-08
     .461090634847D-09  .100000000000D+01  .175400000000D+04  .000000000000D+00
     .240000000000D+01  .000000000000D+00 -.172294676304D-07  .130000000000D+02
     .201606000000D+06  .400000000000D+01
 5 13  8 20  9 59 44.0 -.399579294026D-03 -.113686837722D-12  .000000000000D+00
     .190000000000D+02  .361562500000D+02  .527450541861D-08 -.640953822048D+00
     .196695327759D-05  .317351368722D-02  .431016087532D-05  .515367506409D+04
     .208784000000D+06  .298023223877D-07 -.192516179218D+01 -.372529029846D-08
     .947981663424D+00  .285031250000D+03  .253701547162D+00 -.857321425164D-08
     .434660962517D-09  .100000000000D+01  .175400000000D+04  .000000000000D+00
     .240000000000D+01  .000000000000D+00 -.977888703346D-08  .190000000000D+02
     .201606000000D+06  .400000000000D+01
 1 13  8 20 10  0  0.0  .652419403195D-04  .454747350886D-11  .000000000000D+00
     .690000000000D+02 -.471875000000D+01  .414017245480D-08  .257914538815D+01
    -.188127160072D-06  .222590204794D-02  .140387564898D-04  .515370087242D+04
     .208800000000D+06 -.204890966415D-07 -.296731366772D+01  .484287738800D-07
     .960856363639D+00  .107000000000D+03  .331012493005D+00 -.782354016757D-08
     .494663461862D-09  .100000000000D+01  .175400000000D+04  .000000000000D+00
     .240000000000D+01  .000000000000D+00  .838190317154D-08  .690000000000D+02
     .201606000000D+06  .400000000000D+01
 3 13  8 20 10  0  0.0  .248552300036D-03  .522959453519D-11  .000000000000D+00
     .280000000000D+02 -.141687500000D+03  .508485466175D-08 -.275459806880D+01
    -.720284879208D-05  .166583568789D-01  .480748713017D-05  .515372328758D+04
     .208800000000D+06  .238418579102D-06  .212178870815D+01  .409781932831D-07
     .935275978524D+00  .269187500000D+03  .132213891678D+01 -.840392148563D-08
    -.472162524607D-09  .100000000000D+01  .175400000000D+04  .000000000000D+00
     .340000000000D+01  .000000000000D+00 -.465661287308D-08  .280000000000D+02
     .201606000000D+06  .400000000000D+01
 4 13  8 20 10  0  0.0  .304930843413D-03  .102318153949D-10  .000000000000D+00
     .520000000000D+02 -.106875000000D+02  .468055210664D-08  .330812308758D+00
    -.298023223877D-06  .104539499152D-01  .127125531435D-04  .515359583855D+04
     .208800000000D+06 -.147148966789D-06 -.297446074230D+01  .141561031342D-06
     .938399358363D+00  .125093750000D+03  .100642308581D+01 -.816605443466D-08
     .390016245742D-09  .100000000000D+01  .175400000000D+04  .000000000000D+00
     .240000000000D+01  .000000000000D+00 -.605359673500D-08  .520000000000D+02
     .201606000000D+06  .400000000000D+01
 6 13  8 20 10  0  0.0  .114361755550D-04  .196678229258D-10  .000000000000D+00
     .100000000000D+03 -.135593750000D+03  .496377818986D-08 -.938678957118D+00
    -.702776014805D-05  .808873842470D-02  .605359673500D-05  .515368354797D+04
     .208800000000D+06 -.298023223877D-07  .220191414307D+01 -.134110450745D-06
     .941919949718D+00  .253437500000D+03 -.244530563462D+00 -.855285626079D-08
    -.481448625696D-09  .100000000000D+01  .175400000000D+04  .000000000000D+00
     .240000000000D+01  .000000000000D+00 -.512227416039D-08  .100000000000D+03
     .201606000000D+06  .400000000000D+01
 7 13  8 20 10  0  0.0  .249398406595D-03  .420641299570D-11  .000000000000D+00
     .410000000000D+02  .101625000000D+03  .400588114674D-08  .198375818441D+01
     .539794564247D-05  .682497874368D-02  .134557485580D-04  .515368488503D+04
     .208800000000D+06 -.838190317154D-07  .193110416395D+00  .167638063431D-06
     .975431906540D+00  .128656250000D+03 -.290204104404D+01 -.780782522726D-08
     .144648882349D-09  .100000000000D+01  .175400000000D+04  .000000000000D+00
     .240000000000D+01  .000000000000D+00 -.107102096081D-07  .410000000000D+02
     .201606000000D+06  .400000000000D+01
 8 13  8 20 10  0  0.0  .804150477052D-05  .227373675443D-12  .000000000000D+00
     .500000000000D+02  .111093750000D+03  .352978988706D-08  .141380754630D+01
     .609084963799D-05  .133291700622D-01  .129546970129D-04  .515371268272D+04
     .208800000000D+06  .447034835815D-07  .286190198639D+00  .186264514923D-06
     .998269324644D+00  .148500000000D+03 -.285128618091D+01 -.768210570482D-08
     .864321716755D-10  .100000000000D+01  .175400000000D+04  .000000000000D+00
     .340000000000D+01  .000000000000D+00 -.372529029846D-08  .500000000000D+02
     .201606000000D+06  .400000000000D+01
 9 13  8 20 10  0  0.0  .262571033090D-03  .261479726760D-11  .000000000000D+00
     .350000000000D+02  .102375000000D+03  .371801201298D-08 -.312408737293D+01
     .543147325516D-05  .169541053474D-01  .136904418468D-04  .515373589706D+04
     .208800000000D+06  .355765223503D-06  .170500629807D+00  .113621354103D-06
     .984045758370D+00  .121312500000D+03  .171661273755D+01 -.742280918980D-08
     .153577825704D-09  .100000000000D+01  .175400000000D+04  .000000000000D+00
     .240000000000D+01  .000000000000D+00 -.558793544769D-08  .350000000000D+02
     .201606000000D+06  .400000000000D+01
